[{"OBJECT_NAME":"YAOGAN-43 02B","OBJECT_ID":"2024-156B","EPOCH":"2026-03-09T09:55:42.611232","MEAN_MOTION":15.23399653,"ECCENTRICITY":0.00021542,"INCLINATION":34.9944,"RA_OF_ASC_NODE":105.5294,"ARG_OF_PERICENTER":182.9946,"MEAN_ANOMALY":177.0756,"EPHEMERIS_TYPE":0,"CLASSIFICATION_TYPE":"U","NORAD_CAT_ID":60946,"ELEMENT_SET_NO":999,"REV_AT_EPOCH":8422,"BSTAR":0.00062307708,"MEAN_MOTION_DOT":0.00015184,"MEAN_MOTION_DDOT":0},{"OBJECT_NAME":"DELTA 1 DEB","OBJECT_ID":"1977-065AY","EPOCH":"2026-03-09T09:31:52.025088","MEAN_MOTION":14.67405758,"ECCENTRICITY":0.02967978,"INCLINATION":29.0245,"RA_OF_ASC_NODE":176.3039,"ARG_OF_PERICENTER":150.7849,"MEAN_ANOMALY":210.9696,"EPHEMERIS_TYPE":0,"CLASSIFICATION_TYPE":"U","NORAD_CAT_ID":10221,"ELEMENT_SET_NO":999,"REV_AT_EPOCH":45797,"BSTAR":0.0014159957,"MEAN_MOTION_DOT":0.00016256,"MEAN_MOTION_DDOT":0}]
